[{"name":"GOES 16","l1":"1 41866U 16071A   26200.61016971 -.00000095  00000+0  00000+0 0  9994","l2":"2 41866   0.4153  85.4573 0000621  78.0271 248.8712  1.00271519 35428","cat":"geostationary"},{"name":"TIANLIAN 1-04","l1":"1 41869U 16072A   26200.79783255  .00000027  00000+0  00000+0 0  9997","l2":"2 41869   0.9498  82.6920 0044268  90.9084 227.9624  1.00271913 35623","cat":"geostationary"},{"name":"WGS F8 (USA 272)","l1":"1 41879U 16075A   26200.79254586 -.00000206  00000+0  00000+0 0  9991","l2":"2 41879   0.0192  51.4523 0000153  10.1716 311.0850  1.00272051 35147","cat":"geostationary"},{"name":"FENGYUN 4A","l1":"1 41882U 16077A   26200.81663704 -.00000362  00000+0  00000+0 0  9999","l2":"2 41882   2.4036  79.9132 0008280 159.6242 115.7237  1.00266020 35256","cat":"geostationary"},{"name":"ECHOSTAR 19","l1":"1 41893U 16079A   26200.61016971 -.00000142  00000+0  00000+0 0  9995","l2":"2 41893   0.0184  61.5658 0001364  49.2026 309.1843  1.00268855 35021","cat":"geostationary"},{"name":"JCSAT-110A (JCSAT-15)","l1":"1 41903U 16082A   26200.85602858 -.00000354  00000+0  00000+0 0  9997","l2":"2 41903   0.0194  59.9831 0000620  66.2547 229.6370  1.00271015 35088","cat":"geostationary"},{"name":"STAR ONE D1","l1":"1 41904U 16082B   26200.81759263 -.00000214  00000+0  00000+0 0  9992","l2":"2 41904   0.0051 346.8877 0002081 130.1659  30.8870  1.00273698 35106","cat":"geostationary"},{"name":"TJS-2","l1":"1 41911U 17001A   26200.84736186 -.00000010  00000+0  00000+0 0  9998","l2":"2 41911   0.9156  84.8957 0000836  94.6022 129.7084  1.00271959 35047","cat":"geostationary"},{"name":"SBIRS GEO-4 (USA 273)","l1":"1 41937U 17004A   26200.83839271  .00000123  00000+0  00000+0 0  9991","l2":"2 41937   2.3052  44.1129 0002762  66.4744 150.6555  1.00280934 34929","cat":"geostationary"},{"name":"HISPASAT 36W-1","l1":"1 41942U 17006A   26200.81780833 -.00000248  00000+0  00000+0 0  9995","l2":"2 41942   0.0324 255.9563 0000980 209.4677  90.5785  1.00268443 34579","cat":"geostationary"},{"name":"TELKOM 3S","l1":"1 41944U 17007A   26200.85758859  .00000000  00000+0  00000+0 0  9990","l2":"2 41944   0.0183  66.1473 0002544  54.5156 243.7202  1.00269306 34468","cat":"geostationary"},{"name":"INTELSAT 32E (IS-32E)","l1":"1 41945U 17007B   26200.81780833 -.00000272  00000+0  00000+0 0  9996","l2":"2 41945   0.0140  47.8132 0000646 341.2125 159.7980  1.00272765 34555","cat":"geostationary"},{"name":"ECHOSTAR 23","l1":"1 42070U 17014A   26200.61016971 -.00000061  00000+0  00000+0 0  9993","l2":"2 42070   0.0187  59.9750 0002172  55.1707 292.0036  1.00272082 34240","cat":"geostationary"},{"name":"WGS F9 (USA 275)","l1":"1 42075U 17016A   26200.80669791  .00000000  00000+0  00000+0 0  9997","l2":"2 42075   0.0178  56.6776 0000144 321.3055 198.0441  1.00265639 34221","cat":"geostationary"},{"name":"SES-10","l1":"1 42432U 17017A   26200.74954449 -.00000276  00000+0  00000+0 0  9991","l2":"2 42432   0.0152  48.1724 0002694  72.7056  19.5940  1.00272063 34083","cat":"geostationary"},{"name":"CHINASAT 16 (SJ-13)","l1":"1 42662U 17018A   26200.64225748 -.00000356  00000+0  00000+0 0  9998","l2":"2 42662   0.0888  88.8579 0005162 129.3060  61.0080  1.00272369 34075","cat":"geostationary"},{"name":"KOREASAT 7","l1":"1 42691U 17023A   26200.85715523 -.00000365  00000+0  00000+0 0  9994","l2":"2 42691   0.0188   2.4721 0000827 110.1651 249.4766  1.00272444 33692","cat":"geostationary"},{"name":"SGDC","l1":"1 42692U 17023B   26200.38248949 -.00000254  00000+0  00000+0 0  9993","l2":"2 42692   0.0113   5.4732 0002292 113.5395 240.9927  1.00272894 33735","cat":"geostationary"},{"name":"GSAT-9","l1":"1 42695U 17024A   26200.87242800 -.00000290  00000+0  00000+0 0  9991","l2":"2 42695   0.0966  90.7562 0002300  24.6300 233.6260  1.00274861 33623","cat":"geostationary"},{"name":"INMARSAT 5-F4","l1":"1 42698U 17025A   26200.85003170  .00000073  00000+0  00000+0 0  9996","l2":"2 42698   0.0205  58.0416 0000947 137.9460 104.1488  1.00264150 33609","cat":"geostationary"},{"name":"SES-15","l1":"1 42709U 17026A   26200.62127948  .00000055  00000+0  00000+0 0  9995","l2":"2 42709   0.0290 316.1945 0000921 169.7206 266.0111  1.00278793  7750","cat":"geostationary"},{"name":"QZS-2 (MICHIBIKI-2)","l1":"1 42738U 17028A   26200.43631451 -.00000145  00000+0  00000+0 0  9998","l2":"2 42738  39.3809 242.6784 0756999 269.6501  84.4438  1.00275667  7951","cat":"geostationary"},{"name":"VIASAT-2","l1":"1 42740U 17029A   26200.84003093 -.00000268  00000+0  00000+0 0  9998","l2":"2 42740   0.0221 296.8139 0000441 230.8774   2.4309  1.00270659 33534","cat":"geostationary"},{"name":"EUTELSAT 172B","l1":"1 42741U 17029B   26200.79696588 -.00000009  00000+0  00000+0 0  9993","l2":"2 42741   0.0278 125.6103 0000146 281.4928 349.3665  1.00272323 34069","cat":"geostationary"},{"name":"GSAT-19","l1":"1 42747U 17031A   26200.84363520  .00000122  00000+0  00000+0 0  9990","l2":"2 42747   0.0503  89.8154 0006297   2.6680 196.7039  1.00271631 33478","cat":"geostationary"},{"name":"ECHOSTAR 21","l1":"1 42749U 17032A   26200.80114023  .00000062  00000+0  00000+0 0  9994","l2":"2 42749   1.7704 357.8315 0002328 109.8390 128.5659  1.00271464 33427","cat":"geostationary"},{"name":"BULGARIASAT-1","l1":"1 42801U 17038A   26200.80114023  .00000008  00000+0  00000+0 0  9999","l2":"2 42801   0.0137  40.0752 0003026  84.4263 103.3862  1.00272264 33175","cat":"geostationary"},{"name":"HELLAS-SAT 3","l1":"1 42814U 17040A   26200.84190184  .00000149  00000+0  00000+0 0  9998","l2":"2 42814   0.0600  56.6580 0003283  23.4822 199.5703  1.00274176 33136","cat":"geostationary"},{"name":"GSAT-17","l1":"1 42815U 17040B   26200.85273522 -.00000261  00000+0  00000+0 0  9994","l2":"2 42815   0.0490 253.8281 0002200  23.8865  60.3827  1.00271756 33113","cat":"geostationary"},{"name":"INTELSAT 35E (IS-35E)","l1":"1 42818U 17041A   26200.81225024 -.00000241  00000+0  00000+0 0  9996","l2":"2 42818   0.0141  72.5407 0001999  45.9345  77.0304  1.00272497 33148","cat":"geostationary"},{"name":"COSMOS 2520","l1":"1 42907U 17046A   26199.75044517  .00000130  00000+0  00000+0 0  9992","l2":"2 42907   0.0353 107.3926 0000839 343.1189 161.2276  1.00279605 32710","cat":"geostationary"},{"name":"TDRS 13","l1":"1 42915U 17047A   26200.83197934 -.00000104  00000+0  00000+0 0  9998","l2":"2 42915   3.4608   3.5368 0014955 111.5078 110.6806  1.00272267 32673","cat":"geostationary"}]