OBJECT_NAME,OBJECT_ID,EPOCH,MEAN_MOTION,ECCENTRICITY,INCLINATION,RA_OF_ASC_NODE,ARG_OF_PERICENTER,MEAN_ANOMALY,EPHEMERIS_TYPE,CLASSIFICATION_TYPE,NORAD_CAT_ID,ELEMENT_SET_NO,REV_AT_EPOCH,BSTAR,MEAN_MOTION_DOT,MEAN_MOTION_DDOT
GOES 16,2016-071A,2026-07-19T14:38:38.662944,1.00271519,.0000621,0.4153,85.4573,78.0271,248.8712,0,U,41866,999,3542,0,-.95E-6,0
TIANLIAN 1-04,2016-072A,2026-07-19T19:08:52.732320,1.00271913,.0044268,0.9498,82.6920,90.9084,227.9624,0,U,41869,999,3562,0,.27E-6,0
WGS F8 (USA 272),2016-075A,2026-07-19T19:01:15.962304,1.00272051,.0000153,0.0192,51.4523,10.1716,311.0850,0,U,41879,999,3514,0,-.206E-5,0
FENGYUN 4A,2016-077A,2026-07-19T19:35:57.440256,1.00266020,.000828,2.4036,79.9132,159.6242,115.7237,0,U,41882,999,3525,0,-.362E-5,0
ECHOSTAR 19,2016-079A,2026-07-19T14:38:38.662944,1.00268855,.0001364,0.0184,61.5658,49.2026,309.1843,0,U,41893,999,3502,0,-.142E-5,0
JCSAT-110A (JCSAT-15),2016-082A,2026-07-19T20:32:40.869312,1.00271015,.000062,0.0194,59.9831,66.2547,229.6370,0,U,41903,999,3508,0,-.354E-5,0
STAR ONE D1,2016-082B,2026-07-19T19:37:20.003232,1.00273698,.0002081,0.0051,346.8877,130.1659,30.8870,0,U,41904,999,3510,0,-.214E-5,0
TJS-2,2017-001A,2026-07-19T20:20:12.064704,1.00271959,.0000836,0.9156,84.8957,94.6022,129.7084,0,U,41911,999,3504,0,-.1E-6,0
SBIRS GEO-4 (USA 273),2017-004A,2026-07-19T20:07:17.130144,1.00280934,.0002762,2.3052,44.1129,66.4744,150.6555,0,U,41937,999,3492,0,.123E-5,0
HISPASAT 36W-1,2017-006A,2026-07-19T19:37:38.639712,1.00268443,.000098,0.0324,255.9563,209.4677,90.5785,0,U,41942,999,3457,0,-.248E-5,0
TELKOM 3S,2017-007A,2026-07-19T20:34:55.654176,1.00269306,.0002544,0.0183,66.1473,54.5156,243.7202,0,U,41944,999,3446,0,0,0
INTELSAT 32E (IS-32E),2017-007B,2026-07-19T19:37:38.639712,1.00272765,.0000646,0.0140,47.8132,341.2125,159.7980,0,U,41945,999,3455,0,-.272E-5,0
ECHOSTAR 23,2017-014A,2026-07-19T14:38:38.662944,1.00272082,.0002172,0.0187,59.9750,55.1707,292.0036,0,U,42070,999,3424,0,-.61E-6,0
WGS F9 (USA 275),2017-016A,2026-07-19T19:21:38.699424,1.00265639,.0000144,0.0178,56.6776,321.3055,198.0441,0,U,42075,999,3422,0,0,0
SES-10,2017-017A,2026-07-19T17:59:20.643936,1.00272063,.0002694,0.0152,48.1724,72.7056,19.5940,0,U,42432,999,3408,0,-.276E-5,0
CHINASAT 16 (SJ-13),2017-018A,2026-07-19T15:24:51.046272,1.00272369,.0005162,0.0888,88.8579,129.3060,61.0080,0,U,42662,999,3407,0,-.356E-5,0
KOREASAT 7,2017-023A,2026-07-19T20:34:18.211872,1.00272444,.0000827,0.0188,2.4721,110.1651,249.4766,0,U,42691,999,3369,0,-.365E-5,0
SGDC,2017-023B,2026-07-19T09:10:47.091936,1.00272894,.0002292,0.0113,5.4732,113.5395,240.9927,0,U,42692,999,3373,0,-.254E-5,0
GSAT-9,2017-024A,2026-07-19T20:56:17.779200,1.00274861,.00023,0.0966,90.7562,24.6300,233.6260,0,U,42695,999,3362,0,-.29E-5,0
INMARSAT 5-F4,2017-025A,2026-07-19T20:24:02.738880,1.00264150,.0000947,0.0205,58.0416,137.9460,104.1488,0,U,42698,999,3360,0,.73E-6,0
SES-15,2017-026A,2026-07-19T14:54:38.547072,1.00278793,.0000921,0.0290,316.1945,169.7206,266.0111,0,U,42709,999,775,0,.55E-6,0
QZS-2 (MICHIBIKI-2),2017-028A,2026-07-19T10:28:17.573664,1.00275667,.07569995,39.3809,242.6784,269.6501,84.4438,0,U,42738,999,795,0,-.145E-5,0
VIASAT-2,2017-029A,2026-07-19T20:09:38.672352,1.00270659,.0000441,0.0221,296.8139,230.8774,2.4309,0,U,42740,999,3353,0,-.268E-5,0
EUTELSAT 172B,2017-029B,2026-07-19T19:07:37.852032,1.00272323,.0000146,0.0278,125.6103,281.4928,349.3665,0,U,42741,999,3406,0,-.9E-7,0
GSAT-19,2017-031A,2026-07-19T20:14:50.081280,1.00271631,.0006297,0.0503,89.8154,2.6680,196.7039,0,U,42747,999,3347,0,.122E-5,0
ECHOSTAR 21,2017-032A,2026-07-19T19:13:38.515872,1.00271464,.0002328,1.7704,357.8315,109.8390,128.5659,0,U,42749,999,3342,0,.62E-6,0
BULGARIASAT-1,2017-038A,2026-07-19T19:13:38.515872,1.00272264,.0003026,0.0137,40.0752,84.4263,103.3862,0,U,42801,999,3317,0,.8E-7,0
HELLAS-SAT 3,2017-040A,2026-07-19T20:12:20.318976,1.00274176,.0003283,0.0600,56.6580,23.4822,199.5703,0,U,42814,999,3313,0,.149E-5,0
GSAT-17,2017-040B,2026-07-19T20:27:56.323008,1.00271756,.00022,0.0490,253.8281,23.8865,60.3827,0,U,42815,999,3311,0,-.261E-5,0
INTELSAT 35E (IS-35E),2017-041A,2026-07-19T19:29:38.420736,1.00272497,.0001999,0.0141,72.5407,45.9345,77.0304,0,U,42818,999,3314,0,-.241E-5,0
COSMOS 2520,2017-046A,2026-07-18T18:00:38.462688,1.00279605,.00008397,0.0353,107.3926,343.1189,161.2276,0,U,42907,999,3271,0,.13E-5,0
TDRS 13,2017-047A,2026-07-19T19:58:03.014976,1.00272267,.0014955,3.4608,3.5368,111.5078,110.6806,0,U,42915,999,3267,0,-.104E-5,0
